{"fetched_at":"2026-07-09T18:17:09.242Z","source":"https://celestrak.org/NORAD/elements/gp.php?NAME=JILIN&FORMAT=JSON","constellation":"jilin-1-gaofen","records":[{"OBJECT_NAME":"JILIN-1 GAOFEN 3A","OBJECT_ID":"2019-032C","EPOCH":"2026-07-08T14:10:43.720320","CLASSIFICATION_TYPE":"U","MEAN_MOTION":15.33104625,"ECCENTRICITY":0.00046987,"INCLINATION":44.9745,"RA_OF_ASC_NODE":239.0993,"ARG_OF_PERICENTER":56.3811,"MEAN_ANOMALY":303.7522,"EPHEMERIS_TYPE":0,"NORAD_CAT_ID":44312,"ELEMENT_SET_NO":999,"REV_AT_EPOCH":39112,"BSTAR":0.00022016114,"MEAN_MOTION_DOT":0.00006873,"MEAN_MOTION_DDOT":0},{"OBJECT_NAME":"JILIN-1 GAOFEN 2A","OBJECT_ID":"2019-075A","EPOCH":"2026-07-08T23:21:18.824256","CLASSIFICATION_TYPE":"U","MEAN_MOTION":15.39901434,"ECCENTRICITY":0.00058057,"INCLINATION":97.4959,"RA_OF_ASC_NODE":274.2802,"ARG_OF_PERICENTER":18.088,"MEAN_ANOMALY":342.0571,"EPHEMERIS_TYPE":0,"NORAD_CAT_ID":44777,"ELEMENT_SET_NO":999,"REV_AT_EPOCH":36823,"BSTAR":0.00027188151,"MEAN_MOTION_DOT":0.00010734,"MEAN_MOTION_DDOT":0},{"OBJECT_NAME":"JILIN-1 GAOFEN 2B","OBJECT_ID":"2019-086A","EPOCH":"2026-07-08T22:12:49.412160","CLASSIFICATION_TYPE":"U","MEAN_MOTION":15.20953603,"ECCENTRICITY":0.00127607,"INCLINATION":97.4873,"RA_OF_ASC_NODE":261.7824,"ARG_OF_PERICENTER":239.4726,"MEAN_ANOMALY":120.5251,"EPHEMERIS_TYPE":0,"NORAD_CAT_ID":44836,"ELEMENT_SET_NO":999,"REV_AT_EPOCH":36379,"BSTAR":0.00016852544,"MEAN_MOTION_DOT":0.00003668,"MEAN_MOTION_DDOT":0},{"OBJECT_NAME":"JILIN-1 GAOFEN 3E","OBJECT_ID":"2020-065D","EPOCH":"2026-07-08T23:04:33.830688","CLASSIFICATION_TYPE":"U","MEAN_MOTION":15.66552656,"ECCENTRICITY":0.00111458,"INCLINATION":97.2223,"RA_OF_ASC_NODE":243.1136,"ARG_OF_PERICENTER":91.9906,"MEAN_ANOMALY":268.2631,"EPHEMERIS_TYPE":0,"NORAD_CAT_ID":46457,"ELEMENT_SET_NO":999,"REV_AT_EPOCH":32316,"BSTAR":0.00051153257,"MEAN_MOTION_DOT":0.00053654,"MEAN_MOTION_DDOT":0},{"OBJECT_NAME":"JILIN-1 GAOFEN 3F","OBJECT_ID":"2020-065E","EPOCH":"2026-07-08T23:07:04.027584","CLASSIFICATION_TYPE":"U","MEAN_MOTION":15.63380681,"ECCENTRICITY":0.00125507,"INCLINATION":97.2179,"RA_OF_ASC_NODE":240.3407,"ARG_OF_PERICENTER":78.6721,"MEAN_ANOMALY":281.5947,"EPHEMERIS_TYPE":0,"NORAD_CAT_ID":46458,"ELEMENT_SET_NO":999,"REV_AT_EPOCH":32310,"BSTAR":0.00051014863,"MEAN_MOTION_DOT":0.0004719,"MEAN_MOTION_DDOT":0},{"OBJECT_NAME":"JILIN-1 GAOFEN 3G","OBJECT_ID":"2020-065F","EPOCH":"2026-07-08T21:35:19.830912","CLASSIFICATION_TYPE":"U","MEAN_MOTION":15.75762326,"ECCENTRICITY":0.0004845,"INCLINATION":97.224,"RA_OF_ASC_NODE":247.4712,"ARG_OF_PERICENTER":309.8137,"MEAN_ANOMALY":50.2701,"EPHEMERIS_TYPE":0,"NORAD_CAT_ID":46459,"ELEMENT_SET_NO":999,"REV_AT_EPOCH":32335,"BSTAR":0.00059925109,"MEAN_MOTION_DOT":0.00092548,"MEAN_MOTION_DDOT":0},{"OBJECT_NAME":"JILIN-1 GAOFEN 3H","OBJECT_ID":"2020-065G","EPOCH":"2026-07-08T22:11:53.050848","CLASSIFICATION_TYPE":"U","MEAN_MOTION":15.71371566,"ECCENTRICITY":0.00054342,"INCLINATION":97.2183,"RA_OF_ASC_NODE":243.6805,"ARG_OF_PERICENTER":224.5916,"MEAN_ANOMALY":135.4911,"EPHEMERIS_TYPE":0,"NORAD_CAT_ID":46460,"ELEMENT_SET_NO":999,"REV_AT_EPOCH":32329,"BSTAR":0.0005752714,"MEAN_MOTION_DOT":0.00073512,"MEAN_MOTION_DDOT":0},{"OBJECT_NAME":"JILIN-1 GAOFEN 2D","OBJECT_ID":"2021-086A","EPOCH":"2026-07-08T22:49:45.033024","CLASSIFICATION_TYPE":"U","MEAN_MOTION":15.10833621,"ECCENTRICITY":0.00343892,"INCLINATION":97.6496,"RA_OF_ASC_NODE":312.6599,"ARG_OF_PERICENTER":71.281,"MEAN_ANOMALY":289.2147,"EPHEMERIS_TYPE":0,"NORAD_CAT_ID":49256,"ELEMENT_SET_NO":999,"REV_AT_EPOCH":26400,"BSTAR":0.00020006104,"MEAN_MOTION_DOT":0.00003305,"MEAN_MOTION_DDOT":0},{"OBJECT_NAME":"JILIN-1 GAOFEN 2F","OBJECT_ID":"2021-097A","EPOCH":"2026-07-08T22:25:56.136000","CLASSIFICATION_TYPE":"U","MEAN_MOTION":15.07919136,"ECCENTRICITY":0.00195372,"INCLINATION":97.6721,"RA_OF_ASC_NODE":316.0854,"ARG_OF_PERICENTER":149.4614,"MEAN_ANOMALY":210.7756,"EPHEMERIS_TYPE":0,"NORAD_CAT_ID":49338,"ELEMENT_SET_NO":999,"REV_AT_EPOCH":25959,"BSTAR":0.00014387082,"MEAN_MOTION_DOT":0.00002153,"MEAN_MOTION_DDOT":0},{"OBJECT_NAME":"JILIN-1 GAOFEN 3D27","OBJECT_ID":"2022-048B","EPOCH":"2026-07-08T23:13:38.291520","CLASSIFICATION_TYPE":"U","MEAN_MOTION":15.81387947,"ECCENTRICITY":0.00044411,"INCLINATION":97.5711,"RA_OF_ASC_NODE":305.9755,"ARG_OF_PERICENTER":260.0716,"MEAN_ANOMALY":100.005,"EPHEMERIS_TYPE":0,"NORAD_CAT_ID":52444,"ELEMENT_SET_NO":999,"REV_AT_EPOCH":23291,"BSTAR":0.00070774249,"MEAN_MOTION_DOT":0.00141373,"MEAN_MOTION_DDOT":0},{"OBJECT_NAME":"JILIN-1 GAOFEN 3D28","OBJECT_ID":"2022-048C","EPOCH":"2026-07-08T22:00:25.787232","CLASSIFICATION_TYPE":"U","MEAN_MOTION":15.85833748,"ECCENTRICITY":0.00040242,"INCLINATION":97.5646,"RA_OF_ASC_NODE":306.1784,"ARG_OF_PERICENTER":251.9341,"MEAN_ANOMALY":108.1491,"EPHEMERIS_TYPE":0,"NORAD_CAT_ID":52445,"ELEMENT_SET_NO":999,"REV_AT_EPOCH":23296,"BSTAR":0.00075585217,"MEAN_MOTION_DOT":0.00186998,"MEAN_MOTION_DDOT":0},{"OBJECT_NAME":"JILIN-1 GAOFEN 3D29","OBJECT_ID":"2022-048D","EPOCH":"2026-07-08T22:53:03.689952","CLASSIFICATION_TYPE":"U","MEAN_MOTION":15.81582342,"ECCENTRICITY":0.00039879,"INCLINATION":97.5716,"RA_OF_ASC_NODE":306.3235,"ARG_OF_PERICENTER":238.7277,"MEAN_ANOMALY":121.3601,"EPHEMERIS_TYPE":0,"NORAD_CAT_ID":52446,"ELEMENT_SET_NO":999,"REV_AT_EPOCH":23293,"BSTAR":0.00068308213,"MEAN_MOTION_DOT":0.00137591,"MEAN_MOTION_DDOT":0},{"OBJECT_NAME":"JILIN-1 GAOFEN 3D31","OBJECT_ID":"2022-048F","EPOCH":"2026-07-08T22:59:42.973728","CLASSIFICATION_TYPE":"U","MEAN_MOTION":15.90822354,"ECCENTRICITY":0.00049626,"INCLINATION":97.5698,"RA_OF_ASC_NODE":307.5792,"ARG_OF_PERICENTER":246.1587,"MEAN_ANOMALY":113.9166,"EPHEMERIS_TYPE":0,"NORAD_CAT_ID":52448,"ELEMENT_SET_NO":999,"REV_AT_EPOCH":23303,"BSTAR":0.00081409198,"MEAN_MOTION_DOT":0.00251894,"MEAN_MOTION_DDOT":0.000025531228},{"OBJECT_NAME":"JILIN-1 GAOFEN 03D09","OBJECT_ID":"2022-098B","EPOCH":"2026-07-08T23:22:04.351008","CLASSIFICATION_TYPE":"U","MEAN_MOTION":15.69514895,"ECCENTRICITY":0.00030199,"INCLINATION":97.5614,"RA_OF_ASC_NODE":321.3283,"ARG_OF_PERICENTER":254.2824,"MEAN_ANOMALY":105.8105,"EPHEMERIS_TYPE":0,"NORAD_CAT_ID":53445,"ELEMENT_SET_NO":999,"REV_AT_EPOCH":21804,"BSTAR":0.00056934525,"MEAN_MOTION_DOT":0.00067275,"MEAN_MOTION_DDOT":0},{"OBJECT_NAME":"JILIN-1 GAOFEN 03D43","OBJECT_ID":"2022-098E","EPOCH":"2026-07-08T23:08:24.191232","CLASSIFICATION_TYPE":"U","MEAN_MOTION":15.73099885,"ECCENTRICITY":0.00032695,"INCLINATION":97.5596,"RA_OF_ASC_NODE":322.4434,"ARG_OF_PERICENTER":246.6636,"MEAN_ANOMALY":113.4283,"EPHEMERIS_TYPE":0,"NORAD_CAT_ID":53448,"ELEMENT_SET_NO":999,"REV_AT_EPOCH":21811,"BSTAR":0.00054209523,"MEAN_MOTION_DOT":0.00074471,"MEAN_MOTION_DDOT":0},{"OBJECT_NAME":"JILIN-1 GAOFEN 03D08","OBJECT_ID":"2022-155A","EPOCH":"2026-07-08T22:59:38.230368","CLASSIFICATION_TYPE":"U","MEAN_MOTION":15.66967261,"ECCENTRICITY":0.00039102,"INCLINATION":97.6225,"RA_OF_ASC_NODE":337.1378,"ARG_OF_PERICENTER":250.3662,"MEAN_ANOMALY":109.7176,"EPHEMERIS_TYPE":0,"NORAD_CAT_ID":54251,"ELEMENT_SET_NO":999,"REV_AT_EPOCH":20322,"BSTAR":0.00049361081,"MEAN_MOTION_DOT":0.0005248,"MEAN_MOTION_DDOT":0}]}
