JILIN-1 GAOFEN 3A       
1 44312U 19032C   26189.59078380  .00006873  00000+0  22016-3 0  9992
2 44312  44.9745 239.0993 0004698  56.3811 303.7522 15.33104625391123
JILIN-1 GAOFEN 2A       
1 44777U 19075A   26189.97313454  .00010734  00000+0  27188-3 0  9996
2 44777  97.4959 274.2802 0005805  18.0880 342.0571 15.39901434368235
JILIN-1 GAOFEN 2B       
1 44836U 19086A   26189.92557190  .00003668  00000+0  16853-3 0  9991
2 44836  97.4873 261.7824 0012760 239.4726 120.5251 15.20953603363792
JILIN-1 GAOFEN 3E       
1 46457U 20065D   26189.96150267  .00053654  00000+0  51153-3 0  9991
2 46457  97.2223 243.1136 0011145  91.9906 268.2631 15.66552656323169
JILIN-1 GAOFEN 3F       
1 46458U 20065E   26189.96324106  .00047190  00000+0  51015-3 0  9992
2 46458  97.2179 240.3407 0012550  78.6721 281.5947 15.63380681323104
JILIN-1 GAOFEN 3G       
1 46459U 20065F   26189.89953508  .00092548  00000+0  59925-3 0  9994
2 46459  97.2240 247.4712 0004845 309.8137  50.2701 15.75762326323358
JILIN-1 GAOFEN 3H       
1 46460U 20065G   26189.92491957  .00073512  00000+0  57527-3 0  9991
2 46460  97.2183 243.6805 0005434 224.5916 135.4911 15.71371566323290
JILIN-1 GAOFEN 2D       
1 49256U 21086A   26189.95121566  .00003305  00000+0  20006-3 0  9995
2 49256  97.6496 312.6599 0034389  71.2810 289.2147 15.10833621264005
JILIN-1 GAOFEN 2F       
1 49338U 21097A   26189.93467750  .00002153  00000+0  14387-3 0  9999
2 49338  97.6721 316.0854 0019537 149.4614 210.7756 15.07919136259592
JILIN-1 GAOFEN 3D27     
1 52444U 22048B   26189.96780430  .00141373  00000+0  70774-3 0  9994
2 52444  97.5711 305.9755 0004441 260.0716 100.0050 15.81387947232916
JILIN-1 GAOFEN 3D28     
1 52445U 22048C   26189.91696513  .00186998  00000+0  75585-3 0  9995
2 52445  97.5646 306.1784 0004024 251.9341 108.1491 15.85833748232961
JILIN-1 GAOFEN 3D29     
1 52446U 22048D   26189.95351493  .00137591  00000+0  68308-3 0  9995
2 52446  97.5716 306.3235 0003987 238.7277 121.3601 15.81582342232935
JILIN-1 GAOFEN 3D31     
1 52448U 22048F   26189.95813627  .00251894  25531-4  81409-3 0  9990
2 52448  97.5698 307.5792 0004962 246.1587 113.9166 15.90822354233033
JILIN-1 GAOFEN 03D09    
1 53445U 22098B   26189.97366147  .00067275  00000+0  56935-3 0  9998
2 53445  97.5614 321.3283 0003019 254.2824 105.8105 15.69514895218045
JILIN-1 GAOFEN 03D43    
1 53448U 22098E   26189.96416888  .00074471  00000+0  54210-3 0  9998
2 53448  97.5596 322.4434 0003269 246.6636 113.4283 15.73099885218112
JILIN-1 GAOFEN 03D08    
1 54251U 22155A   26189.95808137  .00052480  00000+0  49361-3 0  9993
2 54251  97.6225 337.1378 0003910 250.3662 109.7176 15.66967261203228
